STARLINK-1470           
1 45772U 20038AU  26068.60892913  .00054678  00000+0  19687-2 0  9990
2 45772  53.0480 174.6971 0002444  12.8687 347.2373 15.28074860317065
STARLINK-32003          
1 60097U 24117G   26068.20231302  .00000133  00000+0  16603-4 0  9998
2 60097  53.1616  39.2575 0001073  72.3058 287.8060 15.30193830 96811
